[{"OBJECT_NAME":"RASAT","OBJECT_ID":"2011-044D","EPOCH":"2026-03-09T22:51:46.950336","MEAN_MOTION":14.68056816,"ECCENTRICITY":0.00213517,"INCLINATION":98.0555,"RA_OF_ASC_NODE":161.8881,"ARG_OF_PERICENTER":144.0849,"MEAN_ANOMALY":327.0051,"EPHEMERIS_TYPE":0,"CLASSIFICATION_TYPE":"U","NORAD_CAT_ID":37791,"ELEMENT_SET_NO":999,"REV_AT_EPOCH":77862,"BSTAR":0.00012728627,"MEAN_MOTION_DOT":6.84e-6,"MEAN_MOTION_DDOT":0},{"OBJECT_NAME":"COSMOS 1275 DEB","OBJECT_ID":"1981-053HJ","EPOCH":"2026-03-09T06:45:04.046112","MEAN_MOTION":14.70355977,"ECCENTRICITY":0.00101535,"INCLINATION":82.9208,"RA_OF_ASC_NODE":350.4031,"ARG_OF_PERICENTER":24.8011,"MEAN_ANOMALY":101.3958,"EPHEMERIS_TYPE":0,"CLASSIFICATION_TYPE":"U","NORAD_CAT_ID":13814,"ELEMENT_SET_NO":999,"REV_AT_EPOCH":22456,"BSTAR":0.0031571154,"MEAN_MOTION_DOT":0.00019153,"MEAN_MOTION_DDOT":0}]
